ONEWEB-0160             
1 48060U 21025U   24053.56760230  .00000274  00000+0  71549-3 0  9992
2 48060  87.8984 128.5686 0002870  96.0119 264.1338 13.13471397142556
ONEWEB-0159             
1 48062U 21025W   24053.46601931 -.00000246  00000+0 -70752-3 0  9991
2 48062  87.8980 128.5692 0001799 111.8749 248.2572 13.13468365142582
ONEWEB-0164             
1 48063U 21025X   24053.60092138 -.00000083  00000+0 -26096-3 0  9992
2 48063  87.8979 128.5525 0001896  99.5266 260.6077 13.13470896142580
ONEWEB-0167             
1 48064U 21025Y   24053.47793082 -.00000077  00000+0 -24625-3 0  9993
2 48064  87.8982 128.5870 0001717 107.8514 252.2803 13.13471488142558
ONEWEB-0166             
1 48065U 21025Z   24053.49936000  .00000308  00000+0  80895-3 0  9991
2 48065  87.8977 128.5708 0001916 111.7696 248.3637 13.13469296142633
